[{"OBJECT_NAME":"STARLINK-1523","OBJECT_ID":"2020-055B","EPOCH":"2026-03-10T00:00:02.999808","MEAN_MOTION":15.18858191,"ECCENTRICITY":1.299e-5,"INCLINATION":53.1064,"RA_OF_ASC_NODE":124.8251,"ARG_OF_PERICENTER":79.5973,"MEAN_ANOMALY":273.0855,"EPHEMERIS_TYPE":0,"CLASSIFICATION_TYPE":"U","NORAD_CAT_ID":46028,"ELEMENT_SET_NO":999,"REV_AT_EPOCH":574,"BSTAR":0.0058060297,"MEAN_MOTION_DOT":0.00124296,"MEAN_MOTION_DDOT":0},{"OBJECT_NAME":"OBJECT C","OBJECT_ID":"2024-174C","EPOCH":"2026-03-07T05:41:36.519936","MEAN_MOTION":15.21181447,"ECCENTRICITY":0.0009601,"INCLINATION":97.4469,"RA_OF_ASC_NODE":75.6508,"ARG_OF_PERICENTER":198.0637,"MEAN_ANOMALY":162.0259,"EPHEMERIS_TYPE":0,"CLASSIFICATION_TYPE":"U","NORAD_CAT_ID":61240,"ELEMENT_SET_NO":999,"REV_AT_EPOCH":8020,"BSTAR":0.00020676,"MEAN_MOTION_DOT":4.544e-5,"MEAN_MOTION_DDOT":0}]
